NORAD_CAT_ID,OBJECT_NAME,OBJECT_TYPE,EPOCH,MEAN_MOTION,ECCENTRICITY,INCLINATION,RA_OF_ASC_NODE,ARG_OF_PERICENTER,MEAN_ANOMALY,BSTAR,MEAN_MOTION_DOT,MEAN_MOTION_DDOT,TLE_LINE0,TLE_LINE1,TLE_LINE2,SEMIMAJOR_AXIS,PERIOD,APOGEE,PERIGEE,DECAYED
51978.0,STARLINK-3666,PAYLOAD,2022-07-02 22:00:00,15.08847342,0.0001463,53.2143,320.5259,62.289,166.2105,0.00084701,0.00013221,0.0,0 STARLINK-3666,1 51978U 22025Y   22183.91667824  .00013221  00000-0  84701-3 0  9992,2 51978  53.2143 320.5259 0001463  62.2890 166.2105 15.08847342  1304,6917.858,95.437,540.735,538.711,0.0
51978.0,STARLINK-3666,PAYLOAD,2022-07-03 14:00:01,15.0888051,0.0001361,53.2143,317.5328,67.7334,183.9892,-0.0052094,-0.00082339,0.0,0 STARLINK-3666,1 51978U 22025Y   22184.58334491 -.00082339  00000-0 -52094-2 0  9994,2 51978  53.2143 317.5328 0001361  67.7334 183.9892 15.08880510  1300,6917.757,95.435,540.563,538.68,0.0
51978.0,STARLINK-3666,PAYLOAD,2022-07-03 22:00:00,15.08826508,0.0001369,53.2138,316.0366,62.7317,200.5997,-0.0015405999999999,-0.00024714,0.0,0 STARLINK-3666,1 51978U 22025Y   22184.91667824 -.00024714  00000-0 -15406-2 0  9999,2 51978  53.2138 316.0366 0001369  62.7317 200.5997 15.08826508  1303,6917.922,95.438,540.734,538.84,0.0
51978.0,STARLINK-3666,PAYLOAD,2022-07-04 06:00:00,15.08788344,0.0001302,53.2137,314.5386,73.9705,200.9347,0.0029552,0.00046991,0.0,0 STARLINK-3666,1 51978U 22025Y   22185.25001157  .00046991  00000-0  29552-2 0  9994,2 51978  53.2137 314.5386 0001302  73.9705 200.9347 15.08788344 19182,6918.038000000001,95.441,540.804,539.003,0.0
51978.0,STARLINK-3666,PAYLOAD,2022-07-04 14:00:01,15.08821637,0.0001382,53.2136,313.0439,68.5908,217.8657,-0.0011901,-0.00019169,0.0,0 STARLINK-3666,1 51978U 22025Y   22185.58334491 -.00019169  00000-0 -11901-2 0  9998,2 51978  53.2136 313.0439 0001382  68.5908 217.8657 15.08821637  1306,6917.937,95.439,540.758,538.845,0.0
51978.0,STARLINK-3666,PAYLOAD,2022-07-04 22:00:00,15.08833418,0.0001367,53.2131,311.5475,63.7913,234.2358,-0.00056026,-9.192e-05,0.0,0 STARLINK-3666,1 51978U 22025Y   22185.91667824 -.00009192  00000-0 -56026-3 0  9997,2 51978  53.2131 311.5475 0001367  63.7913 234.2358 15.08833418 19287,6917.901,95.438,540.711,538.82,0.0
51978.0,STARLINK-3666,PAYLOAD,2022-07-05 14:00:01,15.08841658,0.0001394,53.213,308.5547,67.2916,253.9011,-0.00089788,-0.0001455,0.0,0 STARLINK-3666,1 51978U 22025Y   22186.58334491 -.00014550  00000-0 -89788-3 0  9997,2 51978  53.2130 308.5547 0001394  67.2916 253.9011 15.08841658  1307,6917.875,95.437,540.705,538.776,0.0
51978.0,STARLINK-3666,PAYLOAD,2022-07-05 22:00:00,15.0885179,0.000136,53.2126,307.058,63.1143,269.6638,-0.0011522,-0.00018584,0.0,0 STARLINK-3666,1 51978U 22025Y   22186.91667824 -.00018584  00000-0 -11522-2 0  9994,2 51978  53.2126 307.0580 0001360  63.1143 269.6638 15.08851790 19433,6917.844,95.437,540.65,538.769,0.0
51978.0,STARLINK-3666,PAYLOAD,2022-07-06 14:00:01,15.08855239,0.0001351999999999,53.2127,304.0651,64.2764,291.7021,-0.0037123,-0.0005891,0.0,0 STARLINK-3666,1 51978U 22025Y   22187.58334491 -.00058910  00000-0 -37123-2 0  9991,2 51978  53.2127 304.0651 0001352  64.2764 291.7021 15.08855239  1303,6917.834,95.437,540.634,538.764,0.0
51978.0,STARLINK-3666,PAYLOAD,2022-07-06 18:47:15,15.08837388,0.0001375999999999,53.2148,303.168,67.579,292.5348,0.00014338,1.995e-05,0.0,0 STARLINK-3666,1 51978U 22025Y   22187.78281993  .00001995  00000-0  14338-3 0  9994,2 51978  53.2148 303.1680 0001376  67.5790 292.5348 15.08837388 19562,6917.888000000001,95.438,540.705,538.8009999999998,0.0
51978.0,STARLINK-3666,PAYLOAD,2022-07-07 06:00:02,15.08812352,0.0001219,53.2128,301.0702,69.1173,310.1006,0.0029413,0.00046798,0.0,0 STARLINK-3666,1 51978U 22025Y   22188.25002315  .00046798  00000-0  29413-2 0  9995,2 51978  53.2128 301.0702 0001219  69.1173 310.1006 15.08812352 19631,6917.965,95.439,540.673,538.987,0.0
51978.0,STARLINK-3666,PAYLOAD,2022-07-07 12:16:31,15.08831919,0.0001379,53.2147,299.897,67.0158,293.098,1.6447e-05,-2.6e-07,0.0,0 STARLINK-3666,1 51978U 22025Y   22188.51147117 -.00000026  00000-0  16447-4 0  9994,2 51978  53.2147 299.8970 0001379  67.0158 293.0980 15.08831919 18583,6917.905,95.438,540.724,538.816,0.0
51978.0,STARLINK-3666,PAYLOAD,2022-07-07 22:00:00,15.08855381,0.0001313,53.2135,298.0783,57.2697,345.0502,-0.0016456,-0.00026393,0.0,0 STARLINK-3666,1 51978U 22025Y   22188.91667824 -.00026393  00000-0 -16456-2 0  9994,2 51978  53.2135 298.0783 0001313  57.2697 345.0502 15.08855381 19735,6917.833000000001,95.437,540.607,538.79,0.0
51978.0,STARLINK-3666,PAYLOAD,2022-07-08 10:00:00,15.08891899,0.0001319,53.2134,295.833,64.1763,175.5771,-0.0010193,-0.00016496,0.0,0 STARLINK-3666,1 51978U 22025Y   22189.41667824 -.00016496  00000-0 -10193-2 0  9995,2 51978  53.2134 295.8330 0001319  64.1763 175.5771 15.08891899 19811,6917.722,95.434,540.499,538.674,0.0
51978.0,STARLINK-3666,PAYLOAD,2022-07-08 12:07:16,15.08859425,0.0001332,53.2146,295.4362,60.6488,299.4637,0.00010327,1.357e-05,0.0,0 STARLINK-3666,1 51978U 22025Y   22189.50504815  .00001357  00000-0  10327-3 0  9993,2 51978  53.2146 295.4362 0001332  60.6488 299.4637 15.08859425 18731,6917.821,95.436,540.607,538.765,0.0
51978.0,STARLINK-3666,PAYLOAD,2022-07-08 22:00:01,15.08897854,0.0001501999999999,53.2134,293.5883,58.3357,18.9448,-0.0032451,-0.00051645,0.0,0 STARLINK-3666,1 51978U 22025Y   22189.91668981 -.00051645  00000-0 -32451-2 0  9991,2 51978  53.2134 293.5883 0001502  58.3357  18.9448 15.08897854  1300,6917.704000000002,95.434,540.6080000000002,538.53,0.0
51978.0,STARLINK-3666,PAYLOAD,2022-07-09 14:00:01,15.08817838,0.0001558,53.2137,290.5958,62.37,38.0626,-0.0049347,-0.00077928,0.0,0 STARLINK-3666,1 51978U 22025Y   22190.58334491 -.00077928  00000-0 -49347-2 0  9996,2 51978  53.2137 290.5958 0001558  62.3700  38.0626 15.08817838  1306,6917.948,95.439,540.891,538.735,0.0
51978.0,STARLINK-3666,PAYLOAD,2022-07-09 16:00:00,15.0878125,0.0001525,53.2139,290.2219,59.401,133.9281,-0.0012445,-0.00020008,0.0,0 STARLINK-3666,1 51978U 22025Y   22190.66667824 -.00020008  00000-0 -12445-2 0  9990,2 51978  53.2139 290.2219 0001525  59.4010 133.9281 15.08781250 20008,6918.06,95.441,540.98,538.87,0.0
51978.0,STARLINK-3666,PAYLOAD,2022-07-09 20:00:01,15.0876296,0.0001418,53.2135,289.4732,57.427,321.6627,0.00049649,7.606e-05,0.0,0 STARLINK-3666,1 51978U 22025Y   22190.83334491  .00007606  00000-0  49649-3 0  9994,2 51978  53.2135 289.4732 0001418  57.4270 321.6627 15.08762960  1300,6918.116,95.442,540.962,539.0,0.0
51978.0,STARLINK-3666,PAYLOAD,2022-07-10 06:00:00,15.08786325,0.0001244,53.2141,287.6013,67.4371,56.0377,0.0028645,0.00045528,0.0,0 STARLINK-3666,1 51978U 22025Y   22191.25001157  .00045528  00000-0  28645-2 0  9998,2 51978  53.2141 287.6013 0001244  67.4371  56.0377 15.08786325 20098,6918.044,95.441,540.77,539.049,0.0
51978.0,STARLINK-3666,PAYLOAD,2022-07-10 14:00:01,15.08817678,0.0001404,53.2139,286.1067,59.0255,75.9966,0.0014470999999999,0.00022804,0.0,0 STARLINK-3666,1 51978U 22025Y   22191.58334491  .00022804  00000-0  14471-2 0  9998,2 51978  53.2139 286.1067 0001404  59.0255  75.9966 15.08817678  1307,6917.949000000001,95.439,540.785,538.842,0.0
51978.0,STARLINK-3666,PAYLOAD,2022-07-10 22:00:00,15.08853487,0.000134,53.2136,284.6094,60.5189,86.0768,-0.0017634,-0.00028253,0.0,0 STARLINK-3666,1 51978U 22025Y   22191.91667824 -.00028253  00000-0 -17634-2 0  9994,2 51978  53.2136 284.6094 0001340  60.5189  86.0768 15.08853487  1300,6917.839,95.437,540.631,538.7769999999998,0.0
51978.0,STARLINK-3666,PAYLOAD,2022-07-11 06:00:00,15.08843238,0.0001281999999999,53.214,283.1122,69.0267,89.1696,0.0014138,0.00022286,0.0,0 STARLINK-3666,1 51978U 22025Y   22192.25001157  .00022286  00000-0  14138-2 0  9997,2 51978  53.2140 283.1122 0001282  69.0267  89.1696 15.08843238 20248,6917.87,95.437,540.622,538.849,0.0
51978.0,STARLINK-3666,PAYLOAD,2022-07-11 14:00:01,15.08847805,0.0001403,53.2136,281.6176,59.1835,110.6261,0.00078095,0.00012165,0.0,0 STARLINK-3666,1 51978U 22025Y   22192.58334491  .00012165  00000-0  78095-3 0  9991,2 51978  53.2136 281.6176 0001403  59.1835 110.6261 15.08847805  1309,6917.857,95.437,540.692,538.751,0.0
51978.0,STARLINK-3666,PAYLOAD,2022-07-11 22:00:00,15.08885021,0.0001357,53.2132,280.1201,62.3054,119.1098,-0.0046843,-0.00074162,0.0,0 STARLINK-3666,1 51978U 22025Y   22192.91667824 -.00074162  00000-0 -46843-2 0  9999,2 51978  53.2132 280.1201 0001357  62.3054 119.1098 15.08885021 20344,6917.743,95.435,540.547,538.669,0.0
51978.0,STARLINK-3666,PAYLOAD,2022-07-12 06:00:00,15.0884185,0.0001391,53.2139,278.6231,70.60300000000002,122.43,0.001123,0.00017631,0.0,0 STARLINK-3666,1 51978U 22025Y   22193.25001157  .00017631  00000-0  11230-2 0  9996,2 51978  53.2139 278.6231 0001391  70.6030 122.4300 15.08841850 20390,6917.875,95.437,540.702,538.7769999999998,0.0
51978.0,STARLINK-3666,PAYLOAD,2022-07-12 14:00:01,15.08844151,0.000152,53.2141,277.1285,60.5411,144.108,0.0015764,0.00024892,0.0,0 STARLINK-3666,1 51978U 22025Y   22193.58334491  .00024892  00000-0  15764-2 0  9995,2 51978  53.2141 277.1285 0001520  60.5411 144.1080 15.08844151  1304,6917.868,95.437,540.784,538.681,0.0
51978.0,STARLINK-3666,PAYLOAD,2022-07-12 22:00:00,15.08884673,0.0001475,53.2143,275.6308,63.5754,152.6897,-0.0036155,-0.0005744,0.0,0 STARLINK-3666,1 51978U 22025Y   22193.91667824 -.00057440  00000-0 -36155-2 0  9995,2 51978  53.2143 275.6308 0001475  63.5754 152.6897 15.08884673  1300,6917.744000000002,95.435,540.629,538.5880000000002,0.0
51978.0,STARLINK-3666,PAYLOAD,2022-07-13 06:00:00,15.08863439,0.0001546,53.2143,274.134,71.2733,156.6066,-0.00096452,-0.00015615,0.0,0 STARLINK-3666,1 51978U 22025Y   22194.25001157 -.00015615  00000-0 -96452-3 0  9999,2 51978  53.2143 274.1340 0001546  71.2733 156.6066 15.08863439 20548,6917.809,95.436,540.743,538.604,0.0
